DATA_TYPE BULLETIN IMS1.0:short
ISC Bulletin
Event 611574053 South Atlantic Ocean

   Date       Time        Err   RMS Latitude Longitude  Smaj  Smin  Az Depth   Err Ndef Nsta Gap  mdist  Mdist Qual   Author      OrigID
2017/11/15 13:51:13.27  199.7 0.410 -46.1107  -59.6923 487.1  22.8  98   0.0f         3      283  53.36  69.64     uk IDC       09536329

Sta     Dist  EvAz Phase        Time      TRes  Azim AzRes   Slow   SRes Def   SNR       Amp   Per Qual Magnitude    ArrID
H10S3  53.36  60.6 H        14:58:03.423       218.5        73.60        ___                        __            46503853
H10S2  53.36  60.6 H        14:58:03.76          1.5        73.60        ___                        __            46503852
H10N3  54.33  59.9 H        14:59:16.191       217.0        75.40        ___                        __            46503851
H10N1  54.34  59.9 H        14:59:16.878       217.0        75.40        ___                        __            46503849
H10N2  54.35  59.9 H        14:59:17.619       217.0        75.40        ___                        __            46503850
H04S2  69.71 137.1 H        15:19:36.373       223.5        75.40        ___ 704.1                  __            46503847
H04S3  69.72 137.1 H        15:19:37.622       223.5        75.40        ___ 555.4                  __            46503848
H04S1  69.73 137.1 H        15:19:37.587       223.5        75.40        ___ 670.8                  __            46503846

STOP
