DATA_TYPE BULLETIN IMS1.0:short
ISC Bulletin
Event 611604170 South Atlantic Ocean

   Date       Time        Err   RMS Latitude Longitude  Smaj  Smin  Az Depth   Err Ndef Nsta Gap  mdist  Mdist Qual   Author      OrigID
2017/12/01 20:04:55.19  210.5 0.020 -45.6185  -58.9208 515.1  23.0  98   0.0f         3      283  52.65  69.63     uk IDC       09558627

Sta     Dist  EvAz Phase        Time      TRes  Azim AzRes   Slow   SRes Def   SNR       Amp   Per Qual Magnitude    ArrID
H10S3  52.65  60.2 H        21:10:51.94        218.5        73.60        ___  27.0                  __            46916404
H10S2  52.65  60.2 H        21:10:52.109         1.5        73.60        ___   9.7                  __            46916403
H10N3  53.62  59.5 H        21:12:04.836       216.8        75.40        ___  25.1                  __            46916402
H10N1  53.62  59.5 H        21:12:05.195       216.8        75.40        ___  34.0                  __            46916400
H10N2  53.63  59.5 H        21:12:05.456       216.8        75.40        ___  32.6                  __            46916401
H04S2  69.70 136.8 H        21:32:51.362       224.4        75.30        ___   7.1                  __            46916398
H04S3  69.71 136.8 H        21:32:59.194       224.4        75.30        ___   5.9                  __            46916399
H04S1  69.72 136.8 H        21:32:59.876       224.4        75.30        ___   5.6                  __            46916397


STOP
